CBERS 4A                
1 44883U 19093E   26155.86570132  .00000801  00000+0  10832-3 0  9995
2 44883  97.7497 223.4960 0001061 160.8447 199.2807 14.81615080349259
WEILAI 1R               
1 44884U 19093F   26155.85182560  .00004893  00000+0  39157-3 0  9995
2 44884  97.7843 245.7211 0017686  72.9895 287.3265 15.00533552350570
FLORIPASAT-1            
1 44885U 19093G   26155.84918535  .00006649  00000+0  48797-3 0  9995
2 44885  97.7929 249.9914 0013617 108.9031 251.3672 15.03747364350792
SHUNTIAN                
1 44886U 19093H   26155.82689089  .00001277  00000+0  12168-3 0  9998
2 44886  97.8007 244.0513 0012956 104.2750 255.9910 14.95091123350334
ELEKTRO-L 3             
1 44903U 19095A   26155.79402067 -.00000084  00000+0  00000+0 0  9999
2 44903   0.2256  81.1422 0001527 348.5860 185.2957  1.00272869 23584
GONETS-M 14             
1 44905U 19096A   26155.81244514  .00000059  00000+0  35251-3 0  9997
2 44905  82.5234  92.3123 0012951 174.8692 185.2523 12.42869429292144
GONETS-M 15             
1 44906U 19096B   26155.84185818  .00000042  00000+0  23531-3 0  9992
2 44906  82.5253  92.7536 0014374 199.2142 160.8397 12.42870868292114
GONETS-M 16             
1 44907U 19096C   26155.78778862  .00000097  00000+0  62648-3 0  9995
2 44907  82.5200  91.7454 0009589 244.7654 115.2432 12.42891509292097
RS-44 & BREEZE-KM R/B   
1 44909U 19096E   26155.02704110  .00000001  00000+0 -44333-4 0  9997
2 44909  82.5219 348.4520 0217590 174.8762 185.4640 12.79748573300666
JILIN-1 KUANFU 01       
1 45016U 20003A   26155.70056742  .00003688  00000+0  22660-3 0  9994
2 45016  97.5025 229.9000 0009325 354.7822   5.3309 15.10651935353443
XINGYUN-2 01            
1 45602U 20028A   26155.83085495  .00002149  00000+0  12973-3 0  9990
2 45602  97.4872 148.4773 0007284 241.5601 118.4896 15.11754066332977
XINGYUN-2 02            
1 45603U 20028B   26155.80729962  .00001552  00000+0  95399-4 0  9993
2 45603  97.5075 162.0166 0009843 323.0637  36.9915 15.11485891332962
HAIYANG-1D              
1 45721U 20036A   26155.83367880  .00000136  00000+0  63975-4 0  9995
2 45721  98.4559  97.7826 0002593 157.6678 202.4620 14.34168803313202
M2 PATHFINDER           
1 45727U 20037E   26155.74395684  .00003529  00000+0  25553-3 0  9993
2 45727  97.8151 346.8349 0011372 189.4235 170.6779 15.04617610323625
GAOFEN DUOMO (GFDM)     
1 45856U 20042A   26155.87657801  .00001141  00000+0  16929-3 0  9993
2 45856  97.7748 216.2099 0012342 109.7469 250.5074 14.76863568319199
ZIYUAN 3-03 (ZY 3-03)   
1 45939U 20051A   26155.88547345  .00003508  00000+0  15924-3 0  9990
2 45939  97.2835 224.0077 0004546   9.9311 350.2014 15.21427052325475
NEMO-HD                 
1 46277U 20061F   26155.81972911  .00011665  00000+0  25484-3 0  9996
2 46277  97.1921 217.8994 0002642  94.5444 265.6106 15.44334871320079
NAPA-1                  
1 46320U 20061BA  26155.83934184  .00068712  00000+0  66131-3 0  9996
2 46320  97.2467 229.6281 0001203 153.1952 206.9370 15.66338472319807
JILIN-1 GAOFEN 3E       
1 46457U 20065D   26155.73683315  .00058372  00000+0  66162-3 0  9992
2 46457  97.2254 208.0709 0011943 197.1583 162.9273 15.62126192317810
JILIN-1 GAOFEN 3F       
1 46458U 20065E   26155.67676912  .00052271  00000+0  65230-3 0  9998
2 46458  97.2210 205.4030 0013539 186.7017 173.4061 15.59609575317752
JILIN-1 GAOFEN 3G       
1 46459U 20065F   26155.72000845  .00088347  00000+0  76025-3 0  9998
2 46459  97.2282 212.0519 0010828 104.0470 256.1996 15.68966387317980
JILIN-1 GAOFEN 3H       
1 46460U 20065G   26155.72983242  .00073600  00000+0  71806-3 0  9999
2 46460  97.2221 208.4613 0005803  50.8233 309.3542 15.65960907317933
HAIYANG-2C              
1 46469U 20066A   26155.80338403  .00000070  00000+0  13711-3 0  9993
2 46469  65.9978 246.1163 0009370 238.5266 121.4887 13.83374193287784
HJ-2A                   
1 46478U 20067A   26155.83161054  .00000416  00000+0  66788-4 0  9990
2 46478  97.8827 234.4955 0002503 330.4185  29.6883 14.76594754306432
HJ-2B                   
1 46479U 20067B   26155.86857146  .00001079  00000+0  16187-3 0  9991
2 46479  97.8891 235.5433 0001132  88.7146 271.4194 14.76543260306443
GONETS-M 17             
1 46486U 20068A   26155.81275350 -.00000032  00000+0 -30047-3 0  9997
2 46486  82.4988 355.2024 0023417  63.2536 297.0936 12.42872474257621
GONETS-M 18             
1 46487U 20068B   26155.85690916 -.00000025  00000+0 -25054-3 0  9995
2 46487  82.4941 354.2976 0020693  59.8071 300.5055 12.42872435257612
