OBJECT_NAME,OBJECT_ID,EPOCH,MEAN_MOTION,ECCENTRICITY,INCLINATION,RA_OF_ASC_NODE,ARG_OF_PERICENTER,MEAN_ANOMALY,EPHEMERIS_TYPE,CLASSIFICATION_TYPE,NORAD_CAT_ID,ELEMENT_SET_NO,REV_AT_EPOCH,BSTAR,MEAN_MOTION_DOT,MEAN_MOTION_DDOT
CBERS 4A,2019-093E,2026-06-04T20:46:36.594048,14.81615080,.0001061,97.7497,223.4960,160.8447,199.2807,0,U,44883,999,34925,.10832E-3,.801E-5,0
WEILAI 1R,2019-093F,2026-06-04T20:26:37.731840,15.00533552,.0017686,97.7843,245.7211,72.9895,287.3265,0,U,44884,999,35057,.39157E-3,.4893E-4,0
FLORIPASAT-1,2019-093G,2026-06-04T20:22:49.614240,15.03747364,.0013617,97.7929,249.9914,108.9031,251.3672,0,U,44885,999,35079,.48797E-3,.6649E-4,0
SHUNTIAN,2019-093H,2026-06-04T19:50:43.372896,14.95091123,.0012956,97.8007,244.0513,104.2750,255.9910,0,U,44886,999,35033,.12168E-3,.1277E-4,0
ELEKTRO-L 3,2019-095A,2026-06-04T19:03:23.385888,1.00272869,.0001527,0.2256,81.1422,348.5860,185.2957,0,U,44903,999,2358,0,-.84E-6,0
GONETS-M 14,2019-096A,2026-06-04T19:29:55.260096,12.42869429,.0012951,82.5234,92.3123,174.8692,185.2523,0,U,44905,999,29214,.35251E-3,.59E-6,0
GONETS-M 15,2019-096B,2026-06-04T20:12:16.546752,12.42870868,.0014374,82.5253,92.7536,199.2142,160.8397,0,U,44906,999,29211,.23531E-3,.42E-6,0
GONETS-M 16,2019-096C,2026-06-04T18:54:24.936768,12.42891509,.0009589,82.5200,91.7454,244.7654,115.2432,0,U,44907,999,29209,.62648E-3,.97E-6,0
RS-44 & BREEZE-KM R/B,2019-096E,2026-06-04T00:38:56.351040,12.79748573,.02175907,82.5219,348.4520,174.8762,185.4640,0,U,44909,999,30066,-.44332679E-4,.1E-7,0
JILIN-1 KUANFU 01,2020-003A,2026-06-04T16:48:49.025088,15.10651935,.0009325,97.5025,229.9000,354.7822,5.3309,0,U,45016,999,35344,.2266E-3,.3688E-4,0
XINGYUN-2 01,2020-028A,2026-06-04T19:56:25.867680,15.11754066,.0007284,97.4872,148.4773,241.5601,118.4896,0,U,45602,999,33297,.12973E-3,.2149E-4,0
XINGYUN-2 02,2020-028B,2026-06-04T19:22:30.687168,15.11485891,.0009843,97.5075,162.0166,323.0637,36.9915,0,U,45603,999,33296,.95399E-4,.1552E-4,0
HAIYANG-1D,2020-036A,2026-06-04T20:00:29.848320,14.34168803,.0002593,98.4559,97.7826,157.6678,202.4620,0,U,45721,999,31320,.63975E-4,.136E-5,0
M2 PATHFINDER,2020-037E,2026-06-04T17:51:17.870976,15.04617610,.0011372,97.8151,346.8349,189.4235,170.6779,0,U,45727,999,32362,.25553E-3,.3529E-4,0
GAOFEN DUOMO (GFDM),2020-042A,2026-06-04T21:02:16.340064,14.76863568,.0012342,97.7748,216.2099,109.7469,250.5074,0,U,45856,999,31919,.16929E-3,.1141E-4,0
ZIYUAN 3-03 (ZY 3-03),2020-051A,2026-06-04T21:15:04.906080,15.21427052,.0004546,97.2835,224.0077,9.9311,350.2014,0,U,45939,999,32547,.15924E-3,.3508E-4,0
NEMO-HD,2020-061F,2026-06-04T19:40:24.595104,15.44334871,.0002642,97.1921,217.8994,94.5444,265.6106,0,U,46277,999,32007,.25484E-3,.11665E-3,0
NAPA-1,2020-061BA,2026-06-04T20:08:39.134976,15.66338472,.0001203,97.2467,229.6281,153.1952,206.9370,0,U,46320,999,31980,.66131E-3,.68712E-3,0
JILIN-1 GAOFEN 3E,2020-065D,2026-06-04T17:41:02.384160,15.62126192,.0011943,97.2254,208.0709,197.1583,162.9273,0,U,46457,999,31781,.66162E-3,.58372E-3,0
JILIN-1 GAOFEN 3F,2020-065E,2026-06-04T16:14:32.851968,15.59609575,.0013539,97.2210,205.4030,186.7017,173.4061,0,U,46458,999,31775,.6523E-3,.52271E-3,0
JILIN-1 GAOFEN 3G,2020-065F,2026-06-04T17:16:48.730080,15.68966387,.0010828,97.2282,212.0519,104.0470,256.1996,0,U,46459,999,31798,.76025E-3,.88347E-3,0
JILIN-1 GAOFEN 3H,2020-065G,2026-06-04T17:30:57.521088,15.65960907,.0005803,97.2221,208.4613,50.8233,309.3542,0,U,46460,999,31793,.71806E-3,.736E-3,0
HAIYANG-2C,2020-066A,2026-06-04T19:16:52.380192,13.83374193,.000937,65.9978,246.1163,238.5266,121.4887,0,U,46469,999,28778,.13711E-3,.7E-6,0
HJ-2A,2020-067A,2026-06-04T19:57:31.150656,14.76594754,.0002503,97.8827,234.4955,330.4185,29.6883,0,U,46478,999,30643,.66788E-4,.416E-5,0
HJ-2B,2020-067B,2026-06-04T20:50:44.574144,14.76543260,.0001132,97.8891,235.5433,88.7146,271.4194,0,U,46479,999,30644,.16187E-3,.1079E-4,0
GONETS-M 17,2020-068A,2026-06-04T19:30:21.902400,12.42872474,.0023417,82.4988,355.2024,63.2536,297.0936,0,U,46486,999,25762,-.30047E-3,-.32E-6,0
GONETS-M 18,2020-068B,2026-06-04T20:33:56.951424,12.42872435,.0020693,82.4941,354.2976,59.8071,300.5055,0,U,46487,999,25761,-.25054E-3,-.25E-6,0
